{"type":"FeatureCollection","features":[{"geometry":{"type":"MultiPolygon","coordinates":[[[[-58.45642236983645,-34.5626625663501],[-58.45640978859272,-34.56265521269237],[-58.456398213022304,-34.56264844772267],[-58.456311067520126,-34.562750664700964],[-58.456322981957584,-34.562757579335205],[-58.45633559372134,-34.56276489874923],[-58.45634827195105,-34.56277225692714],[-58.45643077856045,-34.56282013553671],[-58.45646639881612,-34.56284081358954],[-58.45647376213914,-34.562845089474415],[-58.45648278052248,-34.56285032096495],[-58.45653476726852,-34.56288049194719],[-58.45652318345907,-34.56289419301],[-58.45657179256652,-34.56292244825428],[-58.45668216095671,-34.56298660080278],[-58.456685388323166,-34.56298789632968],[-58.456730758186396,-34.56301484877127],[-58.45678577090831,-34.56304638637339],[-58.45687331840845,-34.56309741183561],[-58.456892074377414,-34.56310861576806],[-58.456922960649884,-34.563126568421445],[-58.45707020533701,-34.56321215578968],[-58.457089867201205,-34.563189166773405],[-58.4571455225428,-34.56312409550885],[-58.457167691811065,-34.563098175162395],[-58.45710802645232,-34.56306334097473],[-58.457044493140984,-34.56302626200394],[-58.45701731907566,-34.56301039547641],[-58.45698639687546,-34.56299234729334],[-58.45694160438217,-34.56296619454332],[-58.456900570952335,-34.56294224145812],[-58.456852782181045,-34.56291434876221],[-58.45682498713163,-34.56289811257331],[-58.456789935528874,-34.562877657308356],[-58.45667008579207,-34.56280734668698],[-58.45656555232595,-34.56274625119004],[-58.456503715954575,-34.56271018343173],[-58.456435018635624,-34.56266995967316],[-58.456431951471366,-34.56266852082153],[-58.45642236983645,-34.5626625663501]]]]},"type":"Feature","properties":{"tipo":"parcela","codigo":"039-097-008B","fuente":"UPDATE_AGOSTO","fecha_actualizacion":"24/08/2026"}}]}