{"type":"FeatureCollection","features":[{"geometry":{"type":"MultiPolygon","coordinates":[[[[-58.44780738246012,-34.623721064845355],[-58.44781429930458,-34.62370172127339],[-58.44783088227416,-34.62365528227389],[-58.44783295514406,-34.623649477398764],[-58.44784763977715,-34.62360838357023],[-58.447849418078526,-34.623603407962904],[-58.44785955330126,-34.623575050606085],[-58.44786088429688,-34.62357133692848],[-58.44786166980885,-34.623569110523086],[-58.44786366630194,-34.62356354000662],[-58.447865979183966,-34.623557059096996],[-58.44786705925483,-34.623554039480155],[-58.447875219807635,-34.62353111742828],[-58.4478767690067,-34.62352674574221],[-58.44788942439806,-34.62349120439204],[-58.44789094086154,-34.6234869498861],[-58.44789487930553,-34.62347588095865],[-58.44790868021243,-34.62343711267092],[-58.44790960754896,-34.62343448965872],[-58.44791321868902,-34.62342436717921],[-58.447919393636866,-34.62340700662849],[-58.44791348402044,-34.623404689236445],[-58.447887828385724,-34.623394914615965],[-58.44786207462478,-34.62338511293508],[-58.44783466355996,-34.62337467103115],[-58.44783092365542,-34.62337351674065],[-58.4478249813833,-34.623370919900296],[-58.44782319213945,-34.62337612086081],[-58.44781893722795,-34.62338849680348],[-58.44781456230601,-34.62340121526995],[-58.44780056472467,-34.623441930587255],[-58.44779738990198,-34.62345116071406],[-58.44779292768663,-34.62346416762261],[-58.44777684626629,-34.62351092217887],[-58.44775980473418,-34.623560507065854],[-58.44775376054964,-34.62357809297944],[-58.44775107666959,-34.62358589892547],[-58.44773832277624,-34.623622999702945],[-58.4477371990377,-34.623626262696156],[-58.447712389464954,-34.62369841811437],[-58.447757487143235,-34.623709168782476],[-58.44777507480457,-34.62371336262016],[-58.447785029879945,-34.62371573461853],[-58.44780738246012,-34.623721064845355]]]]},"type":"Feature","properties":{"tipo":"parcela","codigo":"042-077A-007","fuente":"UPDATE_AGOSTO","fecha_actualizacion":"24/08/2026"}}]}