{"type":"FeatureCollection","features":[{"geometry":{"type":"MultiPolygon","coordinates":[[[[-58.46344469702495,-34.64162340906468],[-58.463380381225136,-34.64159751143433],[-58.46336102214449,-34.64158971419471],[-58.46331428770279,-34.641570892637134],[-58.46327282112832,-34.64155419840532],[-58.463244464196016,-34.641542534068925],[-58.463195341282855,-34.64152232428342],[-58.4631668207747,-34.64151059682962],[-58.46312505960014,-34.64158153823896],[-58.46318396567579,-34.64160554302481],[-58.463216761574515,-34.64161890204086],[-58.46322654472291,-34.64162289532126],[-58.46324160662883,-34.641629033974255],[-58.46330693671706,-34.64165565281063],[-58.46338568188726,-34.641687743199945],[-58.46344469702495,-34.64162340906468]]]]},"type":"Feature","properties":{"tipo":"parcela","codigo":"048-026-005","fuente":"UPDATE_AGOSTO","fecha_actualizacion":"24/08/2026"}}]}