{"type":"FeatureCollection","features":[{"geometry":{"type":"MultiPolygon","coordinates":[[[[-58.48111019263527,-34.57022310841989],[-58.481206109147934,-34.5701136548539],[-58.48123531405852,-34.57008032661691],[-58.4812500630364,-34.57006349661164],[-58.48129542443976,-34.57001173180293],[-58.48130520441945,-34.57000057159707],[-58.48122692970829,-34.56995309053919],[-58.481216899173546,-34.5699646446992],[-58.48119209682038,-34.56999321365455],[-58.48115737502314,-34.570033210543656],[-58.48113305198703,-34.570061227743295],[-58.48110121390762,-34.570097900633726],[-58.48107046307275,-34.57013332217683],[-58.48097853397935,-34.57023921352093],[-58.48096879208143,-34.570250435893115],[-58.480945863421056,-34.57027684650996],[-58.480970674135186,-34.570292154557634],[-58.48100272699724,-34.57031192992315],[-58.48102195872198,-34.57032379622007],[-58.48111019263527,-34.57022310841989]]]]},"type":"Feature","properties":{"tipo":"parcela","codigo":"053-050-006","fuente":"UPDATE_AGOSTO","fecha_actualizacion":"24/08/2026"}}]}