{"type":"FeatureCollection","features":[{"geometry":{"type":"MultiPolygon","coordinates":[[[[-58.470414577090686,-34.65413850636757],[-58.47037143185039,-34.654097837058835],[-58.47024413454591,-34.65397783907181],[-58.47016728070815,-34.65390539674553],[-58.4701509522256,-34.65391745858937],[-58.47008172245903,-34.653968572658464],[-58.47001129278242,-34.654020570140005],[-58.469940372180346,-34.6540729371871],[-58.46993278055123,-34.65407854439802],[-58.469898367334146,-34.65410395713769],[-58.46987025864608,-34.65412470921547],[-58.46986074728246,-34.65413173174593],[-58.46983796145169,-34.654148553362795],[-58.46977368332685,-34.65419601626111],[-58.46975799827611,-34.654207609282125],[-58.46975570769059,-34.65420929504835],[-58.469749970319945,-34.65421353199969],[-58.46973613954572,-34.6542237457557],[-58.46970230430878,-34.654248725730035],[-58.469656012611246,-34.65428290978581],[-58.46977269507463,-34.65439283113201],[-58.469905621386005,-34.65451804848731],[-58.46993294483703,-34.65449767503948],[-58.47000038625538,-34.65444738144465],[-58.47025822921954,-34.65425510432929],[-58.470414577090686,-34.65413850636757]]]]},"type":"Feature","properties":{"tipo":"parcela","codigo":"056-068-040B","fuente":"UPDATE_AGOSTO","fecha_actualizacion":"24/08/2026"}}]}